[{"OBJECT_NAME":"GEESAT-5 11","OBJECT_ID":"2025-201L","EPOCH":"2026-03-09T16:20:00.938688","MEAN_MOTION":14.8375843,"ECCENTRICITY":0.00089326,"INCLINATION":49.9859,"RA_OF_ASC_NODE":140.356,"ARG_OF_PERICENTER":317.2651,"MEAN_ANOMALY":42.7591,"EPHEMERIS_TYPE":0,"CLASSIFICATION_TYPE":"U","NORAD_CAT_ID":65560,"ELEMENT_SET_NO":999,"REV_AT_EPOCH":2704,"BSTAR":0.00034705085,"MEAN_MOTION_DOT":2.678e-5,"MEAN_MOTION_DDOT":0},{"OBJECT_NAME":"FENGYUN 1C DEB","OBJECT_ID":"1999-025DQS","EPOCH":"2026-03-06T01:02:44.699424","MEAN_MOTION":14.66348682,"ECCENTRICITY":0.00987196,"INCLINATION":98.0588,"RA_OF_ASC_NODE":96.4908,"ARG_OF_PERICENTER":0.6142,"MEAN_ANOMALY":359.5165,"EPHEMERIS_TYPE":0,"CLASSIFICATION_TYPE":"U","NORAD_CAT_ID":35234,"ELEMENT_SET_NO":999,"REV_AT_EPOCH":95576,"BSTAR":0.00095099666,"MEAN_MOTION_DOT":5.597e-5,"MEAN_MOTION_DDOT":0}]
